{"type": "FeatureCollection", "features": [ {"type": "Feature", "properties": {"norad_id": 42987, "name": "SKYSAT-C11", "group": "resource", "lat": -39.697484931990225, "lon": -54.37443801439392, "alt_km": 430.32793380846397, "timestamp": "2025-12-20T03:42:47.049680+00:00", "meta": {"OBJECT_NAME": "SKYSAT-C11", "OBJECT_ID": "2017-068A", "EPOCH": "2025-12-19T19:00:25.726752", "MEAN_MOTION": 15.47730564, "ECCENTRICITY": 0.0001151, "INCLINATION": 97.4143, "RA_OF_ASC_NODE": 131.4598, "ARG_OF_PERICENTER": 100.0017, "MEAN_ANOMALY": 260.1363, "EPHEMERIS_TYPE": 0, "CLASSIFICATION_TYPE": "U", "NORAD_CAT_ID": 42987, "ELEMENT_SET_NO": 999, "REV_AT_EPOCH": 45540, "BSTAR": 0.00031864, "MEAN_MOTION_DOT": 0.00016416, "MEAN_MOTION_DDOT": 0}, "tle": {"line1": "1 42987U 17068A   25353.79196443  .00016416  00000+0  31864-3 0  9995", "line2": "2 42987  97.4143 131.4598 0001151 100.0017 260.1363 15.47730564455409"}}, "geometry": {"type": "Point", "coordinates": [-54.37443801439392, -39.697484931990225]}}, {"type": "Feature", "properties": {"norad_id": 42988, "name": "SKYSAT-C10", "group": "resource", "lat": -67.26229017601553, "lon": -73.10697836861806, "alt_km": 480.1208614659745, "timestamp": "2025-12-20T03:42:47.049691+00:00", "meta": {"OBJECT_NAME": "SKYSAT-C10", "OBJECT_ID": "2017-068B", "EPOCH": "2025-12-18T22:25:10.285248", "MEAN_MOTION": 15.32190604, "ECCENTRICITY": 0.00054557, "INCLINATION": 97.426, "RA_OF_ASC_NODE": 123.8024, "ARG_OF_PERICENTER": 86.4338, "MEAN_ANOMALY": 273.7528, "EPHEMERIS_TYPE": 0, "CLASSIFICATION_TYPE": "U", "NORAD_CAT_ID": 42988, "ELEMENT_SET_NO": 999, "REV_AT_EPOCH": 45474, "BSTAR": 0.00029573083, "MEAN_MOTION_DOT": 9.118e-05, "MEAN_MOTION_DDOT": 0}, "tle": {"line1": "1 42988U 17068B   25352.93414682  .00009118  00000+0  29573-3 0  9994", "line2": "2 42988  97.4260 123.8024 0005455  86.4338 273.7528 15.32190604454741"}}, "geometry": {"type": "Point", "coordinates": [-73.10697836861806, -67.26229017601553]}}, {"type": "Feature", "properties": {"norad_id": 42989, "name": "SKYSAT-C9", "group": "resource", "lat": -22.61616352409433, "lon": -58.644478767463696, "alt_km": 468.2371289297298, "timestamp": "2025-12-20T03:42:47.049701+00:00", "meta": {"OBJECT_NAME": "SKYSAT-C9", "OBJECT_ID": "2017-068C", "EPOCH": "2025-12-18T22:41:41.803008", "MEAN_MOTION": 15.36203039, "ECCENTRICITY": 0.0010548, "INCLINATION": 97.4193, "RA_OF_ASC_NODE": 123.2487, "ARG_OF_PERICENTER": 67.9248, "MEAN_ANOMALY": 292.3115, "EPHEMERIS_TYPE": 0, "CLASSIFICATION_TYPE": "U", "NORAD_CAT_ID": 42989, "ELEMENT_SET_NO": 999, "REV_AT_EPOCH": 45503, "BSTAR": 0.00029759929, "MEAN_MOTION_DOT": 0.00010438, "MEAN_MOTION_DDOT": 0}, "tle": {"line1": "1 42989U 17068C   25352.94562272  .00010438  00000+0  29760-3 0  9990", "line2": "2 42989  97.4193 123.2487 0010548  67.9248 292.3115 15.36203039455030"}}, "geometry": {"type": "Point", "coordinates": [-58.644478767463696, -22.61616352409433]}}, {"type": "Feature", "properties": {"norad_id": 42990, "name": "SKYSAT-C8", "group": "resource", "lat": 82.56079962649207, "lon": 36.46612055399145, "alt_km": 459.77001135944647, "timestamp": "2025-12-20T03:42:47.049711+00:00", "meta": {"OBJECT_NAME": "SKYSAT-C8", "OBJECT_ID": "2017-068D", "EPOCH": "2025-12-18T19:59:35.453472", "MEAN_MOTION": 15.33051371, "ECCENTRICITY": 0.00011703, "INCLINATION": 97.4282, "RA_OF_ASC_NODE": 122.8599, "ARG_OF_PERICENTER": 316.3061, "MEAN_ANOMALY": 43.8088, "EPHEMERIS_TYPE": 0, "CLASSIFICATION_TYPE": "U", "NORAD_CAT_ID": 42990, "ELEMENT_SET_NO": 999, "REV_AT_EPOCH": 45464, "BSTAR": 0.00030081895, "MEAN_MOTION_DOT": 9.527e-05, "MEAN_MOTION_DDOT": 0}, "tle": {"line1": "1 42990U 17068D   25352.83304923  .00009527  00000+0  30082-3 0  9993", "line2": "2 42990  97.4282 122.8599 0001170 316.3061  43.8088 15.33051371454646"}}, "geometry": {"type": "Point", "coordinates": [36.46612055399145, 82.56079962649207]}}, {"type": "Feature", "properties": {"norad_id": 42991, "name": "SKYSAT-C7", "group": "resource", "lat": -69.58416092669925, "lon": 145.74427072648047, "alt_km": 476.9844041438155, "timestamp": "2025-12-20T03:42:47.049721+00:00", "meta": {"OBJECT_NAME": "SKYSAT-C7", "OBJECT_ID": "2017-068E", "EPOCH": "2025-12-18T22:14:48.659712", "MEAN_MOTION": 15.32453251, "ECCENTRICITY": 0.00072381, "INCLINATION": 97.429, "RA_OF_ASC_NODE": 123.9903, "ARG_OF_PERICENTER": 38.2093, "MEAN_ANOMALY": 321.9661, "EPHEMERIS_TYPE": 0, "CLASSIFICATION_TYPE": "U", "NORAD_CAT_ID": 42991, "ELEMENT_SET_NO": 999, "REV_AT_EPOCH": 45472, "BSTAR": 0.00029204968, "MEAN_MOTION_DOT": 9.081e-05, "MEAN_MOTION_DDOT": 0}, "tle": {"line1": "1 42991U 17068E   25352.92695208  .00009081  00000+0  29205-3 0  9993", "line2": "2 42991  97.4290 123.9903 0007238  38.2093 321.9661 15.32453251454721"}}, "geometry": {"type": "Point", "coordinates": [145.74427072648047, -69.58416092669925]}}, {"type": "Feature", "properties": {"norad_id": 42992, "name": "SKYSAT-C6", "group": "resource", "lat": 23.38255270267722, "lon": 122.41948153069013, "alt_km": 467.8717184728903, "timestamp": "2025-12-20T03:42:47.049731+00:00", "meta": {"OBJECT_NAME": "SKYSAT-C6", "OBJECT_ID": "2017-068F", "EPOCH": "2025-12-19T08:47:41.145216", "MEAN_MOTION": 15.31619298, "ECCENTRICITY": 0.000501, "INCLINATION": 97.4324, "RA_OF_ASC_NODE": 124.8648, "ARG_OF_PERICENTER": 64.6315, "MEAN_ANOMALY": 295.5445, "EPHEMERIS_TYPE": 0, "CLASSIFICATION_TYPE": "U", "NORAD_CAT_ID": 42992, "ELEMENT_SET_NO": 999, "REV_AT_EPOCH": 45477, "BSTAR": 0.00026559, "MEAN_MOTION_DOT": 8.034e-05, "MEAN_MOTION_DDOT": 0}, "tle": {"line1": "1 42992U 17068F   25353.36644844  .00008034  00000+0  26559-3 0  9999", "line2": "2 42992  97.4324 124.8648 0005010  64.6315 295.5445 15.31619298454777"}}, "geometry": {"type": "Point", "coordinates": [122.41948153069013, 23.38255270267722]}}, {"type": "Feature", "properties": {"norad_id": 43111, "name": "CARTOSAT-2F", "group": "resource", "lat": 17.103229707408786, "lon": -126.02499404781592, "alt_km": 508.365746683643, "timestamp": "2025-12-20T03:42:47.049742+00:00", "meta": {"OBJECT_NAME": "CARTOSAT-2F", "OBJECT_ID": "2018-004A", "EPOCH": "2025-12-19T20:40:34.991040", "MEAN_MOTION": 15.19185489, "ECCENTRICITY": 0.0001379, "INCLINATION": 97.4311, "RA_OF_ASC_NODE": 51.3849, "ARG_OF_PERICENTER": 108.5081, "MEAN_ANOMALY": 251.6303, "EPHEMERIS_TYPE": 0, "CLASSIFICATION_TYPE": "U", "NORAD_CAT_ID": 43111, "ELEMENT_SET_NO": 999, "REV_AT_EPOCH": 44010, "BSTAR": 0.00011891, "MEAN_MOTION_DOT": 2.434e-05, "MEAN_MOTION_DDOT": 0}, "tle": {"line1": "1 43111U 18004A   25353.86151610  .00002434  00000+0  11891-3 0  9994", "line2": "2 43111  97.4311  51.3849 0001379 108.5081 251.6303 15.19185489440100"}}, "geometry": {"type": "Point", "coordinates": [-126.02499404781592, 17.103229707408786]}}, {"type": "Feature", "properties": {"norad_id": 43259, "name": "GAOFEN-1 02", "group": "resource", "lat": -46.648757266927134, "lon": -136.70799894057623, "alt_km": 646.2171379320953, "timestamp": "2025-12-20T03:42:47.049752+00:00", "meta": {"OBJECT_NAME": "GAOFEN-1 02", "OBJECT_ID": "2018-031A", "EPOCH": "2025-12-19T20:10:52.165056", "MEAN_MOTION": 14.76427634, "ECCENTRICITY": 0.0002185, "INCLINATION": 98.0802, "RA_OF_ASC_NODE": 51.6331, "ARG_OF_PERICENTER": 189.7846, "MEAN_ANOMALY": 170.3321, "EPHEMERIS_TYPE": 0, "CLASSIFICATION_TYPE": "U", "NORAD_CAT_ID": 43259, "ELEMENT_SET_NO": 999, "REV_AT_EPOCH": 41623, "BSTAR": 5.0472e-05, "MEAN_MOTION_DOT": 2.99e-06, "MEAN_MOTION_DDOT": 0}, "tle": {"line1": "1 43259U 18031A   25353.84088154  .00000299  00000+0  50472-4 0  9993", "line2": "2 43259  98.0802  51.6331 0002185 189.7846 170.3321 14.76427634416237"}}, "geometry": {"type": "Point", "coordinates": [-136.70799894057623, -46.648757266927134]}}, {"type": "Feature", "properties": {"norad_id": 43260, "name": "GAOFEN-1 03", "group": "resource", "lat": -17.011759587810086, "lon": 54.313429259289755, "alt_km": 644.8635076742594, "timestamp": "2025-12-20T03:42:47.049762+00:00", "meta": {"OBJECT_NAME": "GAOFEN-1 03", "OBJECT_ID": "2018-031B", "EPOCH": "2025-12-19T21:17:04.965792", "MEAN_MOTION": 14.76450437, "ECCENTRICITY": 0.0001707, "INCLINATION": 98.0789, "RA_OF_ASC_NODE": 51.5548, "ARG_OF_PERICENTER": 284.853, "MEAN_ANOMALY": 75.249, "EPHEMERIS_TYPE": 0, "CLASSIFICATION_TYPE": "U", "NORAD_CAT_ID": 43260, "ELEMENT_SET_NO": 999, "REV_AT_EPOCH": 41623, "BSTAR": 9.7927e-05, "MEAN_MOTION_DOT": 6.29e-06, "MEAN_MOTION_DDOT": 0}, "tle": {"line1": "1 43260U 18031B   25353.88686303  .00000629  00000+0  97927-4 0  9992", "line2": "2 43260  98.0789  51.5548 0001707 284.8530  75.2490 14.76450437416235"}}, "geometry": {"type": "Point", "coordinates": [54.313429259289755, -17.011759587810086]}}, {"type": "Feature", "properties": {"norad_id": 43262, "name": "GAOFEN-1 04", "group": "resource", "lat": 66.15680845820647, "lon": -109.25540375509918, "alt_km": 633.9737062310023, "timestamp": "2025-12-20T03:42:47.049773+00:00", "meta": {"OBJECT_NAME": "GAOFEN-1 04", "OBJECT_ID": "2018-031D", "EPOCH": "2025-12-19T20:41:57.856416", "MEAN_MOTION": 14.76419727, "ECCENTRICITY": 7.57e-05, "INCLINATION": 98.0805, "RA_OF_ASC_NODE": 51.7012, "ARG_OF_PERICENTER": 47.9282, "MEAN_ANOMALY": 312.1992, "EPHEMERIS_TYPE": 0, "CLASSIFICATION_TYPE": "U", "NORAD_CAT_ID": 43262, "ELEMENT_SET_NO": 999, "REV_AT_EPOCH": 41622, "BSTAR": 0.00010844, "MEAN_MOTION_DOT": 7.02e-06, "MEAN_MOTION_DDOT": 0}, "tle": {"line1": "1 43262U 18031D   25353.86247519  .00000702  00000+0  10844-3 0  9998", "line2": "2 43262  98.0805  51.7012 0000757  47.9282 312.1992 14.76419727416226"}}, "geometry": {"type": "Point", "coordinates": [-109.25540375509918, 66.15680845820647]}}]}